{
  "type": "FeatureCollection",
  "features": [
    {
      "type": "Feature",
      "properties": {
        "norad_id": 36459,
        "name": "COSMOS 2251 DEB",
        "group": "cosmos-2251-debris",
        "lat": 32.2167982084225,
        "lon": -171.6682934435326,
        "alt_km": 729.8187410288538,
        "timestamp": "2025-12-02T06:27:53.408682+00:00",
        "meta_object_name": "COSMOS 2251 DEB",
        "meta_object_id": "1993-036BBJ",
        "meta_epoch": "2025-11-27T21:25:14.011392",
        "meta_mean_motion": 14.2626117,
        "meta_eccentricity": 0.0114133,
        "meta_inclination": 74.0487,
        "meta_ra_of_asc_node": 26.6161,
        "meta_arg_of_pericenter": 126.4072,
        "meta_mean_anomaly": 234.7668,
        "meta_ephemeris_type": 0,
        "meta_classification_type": "U",
        "meta_norad_cat_id": 36459,
        "meta_element_set_no": 999,
        "meta_rev_at_epoch": 7670,
        "meta_bstar": 0.0017749,
        "meta_mean_motion_dot": 4.537e-05,
        "meta_mean_motion_ddot": 0,
        "tle_line1": "1 36459U 93036BBJ 25331.89252328  .00004537  00000+0  17749-2 0  9999",
        "tle_line2": "2 36459  74.0487  26.6161 0114133 126.4072 234.7668 14.26261170 76702"
      },
      "geometry": {
        "type": "Point",
        "coordinates": [
          -171.6682934435326,
          32.2167982084225
        ]
      }
    },
    {
      "type": "Feature",
      "properties": {
        "norad_id": 36470,
        "name": "COSMOS 2251 DEB",
        "group": "cosmos-2251-debris",
        "lat": 47.147948304619014,
        "lon": -65.64039487971391,
        "alt_km": 536.3798576871432,
        "timestamp": "2025-12-02T06:27:53.408692+00:00",
        "meta_object_name": "COSMOS 2251 DEB",
        "meta_object_id": "1993-036BBV",
        "meta_epoch": "2025-12-01T03:07:59.018016",
        "meta_mean_motion": 15.05461175,
        "meta_eccentricity": 0.00216594,
        "meta_inclination": 73.8449,
        "meta_ra_of_asc_node": 278.5121,
        "meta_arg_of_pericenter": 106.3338,
        "meta_mean_anomaly": 254.0235,
        "meta_ephemeris_type": 0,
        "meta_classification_type": "U",
        "meta_norad_cat_id": 36470,
        "meta_element_set_no": 999,
        "meta_rev_at_epoch": 65919,
        "meta_bstar": 0.0034944201,
        "meta_mean_motion_dot": 0.000508,
        "meta_mean_motion_ddot": 0,
        "tle_line1": "1 36470U 93036BBV 25335.13054419  .00050800  00000+0  34944-2 0  9994",
        "tle_line2": "2 36470  73.8449 278.5121 0021659 106.3338 254.0235 15.05461175659196"
      },
      "geometry": {
        "type": "Point",
        "coordinates": [
          -65.64039487971391,
          47.147948304619014
        ]
      }
    },
    {
      "type": "Feature",
      "properties": {
        "norad_id": 36528,
        "name": "COSMOS 2251 DEB",
        "group": "cosmos-2251-debris",
        "lat": 71.97238020218867,
        "lon": -77.42119165856766,
        "alt_km": 810.8504028289872,
        "timestamp": "2025-12-02T06:27:53.408702+00:00",
        "meta_object_name": "COSMOS 2251 DEB",
        "meta_object_id": "1993-036BCN",
        "meta_epoch": "2025-11-28T19:45:32.756256",
        "meta_mean_motion": 14.30521775,
        "meta_eccentricity": 0.00858193,
        "meta_inclination": 74.0168,
        "meta_ra_of_asc_node": 170.5765,
        "meta_arg_of_pericenter": 223.2164,
        "meta_mean_anomaly": 136.2231,
        "meta_ephemeris_type": 0,
        "meta_classification_type": "U",
        "meta_norad_cat_id": 36528,
        "meta_element_set_no": 999,
        "meta_rev_at_epoch": 64228,
        "meta_bstar": 0.00075224171,
        "meta_mean_motion_dot": 2.015e-05,
        "meta_mean_motion_ddot": 0,
        "tle_line1": "1 36528U 93036BCN 25332.82329579  .00002015  00000+0  75224-3 0  9995",
        "tle_line2": "2 36528  74.0168 170.5765 0085819 223.2164 136.2231 14.30521775642289"
      },
      "geometry": {
        "type": "Point",
        "coordinates": [
          -77.42119165856766,
          71.97238020218867
        ]
      }
    },
    {
      "type": "Feature",
      "properties": {
        "norad_id": 36533,
        "name": "COSMOS 2251 DEB",
        "group": "cosmos-2251-debris",
        "lat": -67.76479071479275,
        "lon": -0.9474194956762116,
        "alt_km": 703.4808713838092,
        "timestamp": "2025-12-02T06:27:53.408712+00:00",
        "meta_object_name": "COSMOS 2251 DEB",
        "meta_object_id": "1993-036BCT",
        "meta_epoch": "2025-12-01T04:26:58.600608",
        "meta_mean_motion": 14.49745776,
        "meta_eccentricity": 0.0049073,
        "meta_inclination": 74.0099,
        "meta_ra_of_asc_node": 136.5489,
        "meta_arg_of_pericenter": 287.7686,
        "meta_mean_anomaly": 71.8122,
        "meta_ephemeris_type": 0,
        "meta_classification_type": "U",
        "meta_norad_cat_id": 36533,
        "meta_element_set_no": 999,
        "meta_rev_at_epoch": 84317,
        "meta_bstar": 0.00049944,
        "meta_mean_motion_dot": 1.925e-05,
        "meta_mean_motion_ddot": 0,
        "tle_line1": "1 36533U 93036BCT 25335.18540047  .00001925  00000+0  49944-3 0  9997",
        "tle_line2": "2 36533  74.0099 136.5489 0049073 287.7686  71.8122 14.49745776843172"
      },
      "geometry": {
        "type": "Point",
        "coordinates": [
          -0.9474194956762116,
          -67.76479071479275
        ]
      }
    },
    {
      "type": "Feature",
      "properties": {
        "norad_id": 36539,
        "name": "COSMOS 2251 DEB",
        "group": "cosmos-2251-debris",
        "lat": 71.48192604640337,
        "lon": -163.64340862743515,
        "alt_km": 699.0363304345237,
        "timestamp": "2025-12-02T06:27:53.408722+00:00",
        "meta_object_name": "COSMOS 2251 DEB",
        "meta_object_id": "1993-036BCZ",
        "meta_epoch": "2025-12-01T08:37:04.010016",
        "meta_mean_motion": 14.59167391,
        "meta_eccentricity": 0.00278715,
        "meta_inclination": 74.0238,
        "meta_ra_of_asc_node": 76.8866,
        "meta_arg_of_pericenter": 223.5555,
        "meta_mean_anomaly": 136.341,
        "meta_ephemeris_type": 0,
        "meta_classification_type": "U",
        "meta_norad_cat_id": 36539,
        "meta_element_set_no": 999,
        "meta_rev_at_epoch": 83781,
        "meta_bstar": 0.0010197061,
        "meta_mean_motion_dot": 4.804e-05,
        "meta_mean_motion_ddot": 0,
        "tle_line1": "1 36539U 93036BCZ 25335.35907419  .00004804  00000+0  10197-2 0  9998",
        "tle_line2": "2 36539  74.0238  76.8866 0027871 223.5555 136.3410 14.59167391837816"
      },
      "geometry": {
        "type": "Point",
        "coordinates": [
          -163.64340862743515,
          71.48192604640337
        ]
      }
    },
    {
      "type": "Feature",
      "properties": {
        "norad_id": 36540,
        "name": "COSMOS 2251 DEB",
        "group": "cosmos-2251-debris",
        "lat": 73.7165946404116,
        "lon": -58.17512245582734,
        "alt_km": 702.1210957112107,
        "timestamp": "2025-12-02T06:27:53.408731+00:00",
        "meta_object_name": "COSMOS 2251 DEB",
        "meta_object_id": "1993-036BDA",
        "meta_epoch": "2025-12-01T15:13:14.879136",
        "meta_mean_motion": 14.58315335,
        "meta_eccentricity": 0.00154501,
        "meta_inclination": 74.0298,
        "meta_ra_of_asc_node": 201.6617,
        "meta_arg_of_pericenter": 272.4104,
        "meta_mean_anomaly": 87.5292,
        "meta_ephemeris_type": 0,
        "meta_classification_type": "U",
        "meta_norad_cat_id": 36540,
        "meta_element_set_no": 999,
        "meta_rev_at_epoch": 85848,
        "meta_bstar": 0.0010405157,
        "meta_mean_motion_dot": 4.795e-05,
        "meta_mean_motion_ddot": 0,
        "tle_line1": "1 36540U 93036BDA 25335.63419999  .00004795  00000+0  10405-2 0  9993",
        "tle_line2": "2 36540  74.0298 201.6617 0015450 272.4104  87.5292 14.58315335858482"
      },
      "geometry": {
        "type": "Point",
        "coordinates": [
          -58.17512245582734,
          73.7165946404116
        ]
      }
    },
    {
      "type": "Feature",
      "properties": {
        "norad_id": 36550,
        "name": "COSMOS 2251 DEB",
        "group": "cosmos-2251-debris",
        "lat": 28.61074890003874,
        "lon": -139.3422381592733,
        "alt_km": 832.1546168097912,
        "timestamp": "2025-12-02T06:27:53.408741+00:00",
        "meta_object_name": "COSMOS 2251 DEB",
        "meta_object_id": "1993-036BDL",
        "meta_epoch": "2025-11-29T22:48:25.081920",
        "meta_mean_motion": 14.27140631,
        "meta_eccentricity": 0.00789359,
        "meta_inclination": 74.0446,
        "meta_ra_of_asc_node": 215.8731,
        "meta_arg_of_pericenter": 269.2877,
        "meta_mean_anomaly": 89.9226,
        "meta_ephemeris_type": 0,
        "meta_classification_type": "U",
        "meta_norad_cat_id": 36550,
        "meta_element_set_no": 999,
        "meta_rev_at_epoch": 84413,
        "meta_bstar": 0.00064991596,
        "meta_mean_motion_dot": 1.613e-05,
        "meta_mean_motion_ddot": 0,
        "tle_line1": "1 36550U 93036BDL 25333.95029030  .00001613  00000+0  64992-3 0  9997",
        "tle_line2": "2 36550  74.0446 215.8731 0078935 269.2877  89.9226 14.27140631844131"
      },
      "geometry": {
        "type": "Point",
        "coordinates": [
          -139.3422381592733,
          28.61074890003874
        ]
      }
    }
  ]
}